[{"OBJECT_NAME":"IRIDIUM 110","OBJECT_ID":"2018-047F","EPOCH":"2026-03-09T16:39:54.331776","MEAN_MOTION":14.34217414,"ECCENTRICITY":0.00023666,"INCLINATION":86.3979,"RA_OF_ASC_NODE":130.0337,"ARG_OF_PERICENTER":86.5409,"MEAN_ANOMALY":273.6057,"EPHEMERIS_TYPE":0,"CLASSIFICATION_TYPE":"U","NORAD_CAT_ID":43481,"ELEMENT_SET_NO":999,"REV_AT_EPOCH":40821,"BSTAR":-8.01159e-6,"MEAN_MOTION_DOT":-3.0e-8,"MEAN_MOTION_DDOT":0},{"OBJECT_NAME":"NOAA 16 DEB","OBJECT_ID":"2000-055TN","EPOCH":"2026-03-07T15:44:05.031456","MEAN_MOTION":14.31538739,"ECCENTRICITY":0.00117264,"INCLINATION":98.6697,"RA_OF_ASC_NODE":145.6232,"ARG_OF_PERICENTER":109.6695,"MEAN_ANOMALY":250.5755,"EPHEMERIS_TYPE":0,"CLASSIFICATION_TYPE":"U","NORAD_CAT_ID":42418,"ELEMENT_SET_NO":999,"REV_AT_EPOCH":51715,"BSTAR":0.0021516862,"MEAN_MOTION_DOT":5.685e-5,"MEAN_MOTION_DDOT":0}]
